QIANFAN-33              
1 61566U 24185Q   25361.95070129  .00000489  00000+0  34401-3 0  9999
2 61566  88.9795  77.1158 0005007 277.9669  82.0939 13.96563656 71288
QIANFAN-34              
1 61567U 24185R   25361.92508915  .00000568  00000+0  36191-3 0  9992
2 61567  88.9770  76.6622 0003174 287.3675  72.7157 14.02319952 71483
QIANFAN-35              
1 61568U 24185S   25361.83337293  .00000946  00000+0  37582-3 0  9997
2 61568  88.9796  75.1115 0005138 219.5074 140.5747 14.27994200 72331
QIANFAN-36              
1 61569U 24185T   25361.87323061  .00000207  00000+0  28118-3 0  9995
2 61569  88.9781  79.4720 0005838  17.7331 342.4026 13.55593466 69974
QIANFAN-37              
1 62238U 24232B   25361.87944289  .00000081  00000+0  10676-3 0  9993
2 62238  89.0006  39.8012 0002532  87.8824 272.2617 13.50980524101217
QIANFAN-38              
1 62239U 24232C   25361.83005251  .00000039  00000+0  41260-4 0  9994
2 62239  89.0013  39.7229 0015857 146.0117 214.2053 13.50978180101262
QIANFAN-39              
1 62240U 24232D   25361.93795450  .00000373  00000+0  15182-3 0  9998
2 62240  89.0004  35.5708 0017245  36.2100 324.0257 14.25401990103558
QIANFAN-40              
1 62241U 24232E   25361.93703474  .00000074  00000+0  96473-4 0  9995
2 62241  89.0040  39.3009 0014661 152.6269 207.5658 13.50978311101644
